[{"OBJECT_NAME":"STARLINK-31266","OBJECT_ID":"2024-041P","EPOCH":"2026-03-09T00:53:58.589088","MEAN_MOTION":15.27591409,"ECCENTRICITY":3.063e-5,"INCLINATION":42.9975,"RA_OF_ASC_NODE":314.2272,"ARG_OF_PERICENTER":17.3505,"MEAN_ANOMALY":342.7357,"EPHEMERIS_TYPE":0,"CLASSIFICATION_TYPE":"U","NORAD_CAT_ID":59087,"ELEMENT_SET_NO":999,"REV_AT_EPOCH":11422,"BSTAR":0.00010287067,"MEAN_MOTION_DOT":2.571e-5,"MEAN_MOTION_DDOT":0},{"OBJECT_NAME":"FENGYUN 1C DEB","OBJECT_ID":"1999-025BQF","EPOCH":"2026-03-08T19:58:36.101856","MEAN_MOTION":15.15826086,"ECCENTRICITY":0.00798835,"INCLINATION":98.9812,"RA_OF_ASC_NODE":89.4872,"ARG_OF_PERICENTER":83.7388,"MEAN_ANOMALY":277.2932,"EPHEMERIS_TYPE":0,"CLASSIFICATION_TYPE":"U","NORAD_CAT_ID":31327,"ELEMENT_SET_NO":999,"REV_AT_EPOCH":1401,"BSTAR":0.0018254058,"MEAN_MOTION_DOT":0.00037915,"MEAN_MOTION_DDOT":0}]
